{
    "links": {
        "self": "http://www.neowsapp.com/rest/v1/neo/3753588?api_key=iIulBulltgU6a56xZRHN4H3l9WmuAYTsLGpBGhQ2"
    },
    "id": "3753588",
    "neo_reference_id": "3753588",
    "name": "(2016 JR38)",
    "designation": "2016 JR38",
    "nasa_jpl_url": "http://ssd.jpl.nasa.gov/sbdb.cgi?sstr=3753588",
    "absolute_magnitude_h": 24.162,
    "estimated_diameter": {
        "kilometers": {
            "estimated_diameter_min": 0.0390980391,
            "estimated_diameter_max": 0.0874258732
        },
        "meters": {
            "estimated_diameter_min": 39.0980391013,
            "estimated_diameter_max": 87.4258732174
        },
        "miles": {
            "estimated_diameter_min": 0.0242943877,
            "estimated_diameter_max": 0.0543239023
        },
        "feet": {
            "estimated_diameter_min": 128.274410605,
            "estimated_diameter_max": 286.8303018865
        }
    },
    "is_potentially_hazardous_asteroid": false,
    "close_approach_data": [
        {
            "close_approach_date": "2016-05-19",
            "close_approach_date_full": "2016-May-19 12:18",
            "epoch_date_close_approach": 1463660280000,
            "relative_velocity": {
                "kilometers_per_second": "4.6775212437",
                "kilometers_per_hour": "16839.0764773038",
                "miles_per_hour": "10463.1472700225"
            },
            "miss_distance": {
                "astronomical": "0.2728705826",
                "lunar": "106.1466566314",
                "kilometers": "40820857.942619062",
                "miles": "25364904.9392725756"
            },
            "orbiting_body": "Earth"
        }
    ],
    "orbital_data": {
        "orbit_id": "8",
        "orbit_determination_date": "2020-06-12 06:24:38",
        "first_observation_date": "2016-05-03",
        "last_observation_date": "2016-05-08",
        "data_arc_in_days": 5,
        "observations_used": 10,
        "orbit_uncertainty": "9",
        "minimum_orbit_intersection": ".0819047",
        "jupiter_tisserand_invariant": "5.270",
        "epoch_osculation": "2457512.5",
        "eccentricity": ".1205031588280092",
        "semi_major_axis": "1.204933367680171",
        "inclination": "4.966057275679877",
        "ascending_node_longitude": "50.62283535232514",
        "orbital_period": "483.1066034445172",
        "perihelion_distance": "1.059735090697439",
        "perihelion_argument": "308.4168562977662",
        "aphelion_distance": "1.350131644662902",
        "perihelion_time": "2457678.518843753618",
        "mean_anomaly": "236.2865518186475",
        "mean_motion": ".7451771460651221",
        "equinox": "J2000",
        "orbit_class": {
            "orbit_class_type": "AMO",
            "orbit_class_description": "Near-Earth asteroid orbits similar to that of 1221 Amor",
            "orbit_class_range": "1.017 AU < q (perihelion) < 1.3 AU"
        }
    },
    "is_sentry_object": false
}